NORAD_CAT_ID,OBJECT_NAME,OBJECT_TYPE,EPOCH,MEAN_MOTION,ECCENTRICITY,INCLINATION,RA_OF_ASC_NODE,ARG_OF_PERICENTER,MEAN_ANOMALY,BSTAR,MEAN_MOTION_DOT,MEAN_MOTION_DDOT,TLE_LINE0,TLE_LINE1,TLE_LINE2,SEMIMAJOR_AXIS,PERIOD,APOGEE,PERIGEE,DECAYED
51963.0,STARLINK-3675,PAYLOAD,2022-10-23 01:58:54,15.08849434,0.0001633,53.2162,167.0086,58.7913,301.3239,0.00011661,1.569e-05,0.0,0 STARLINK-3675,1 51963U 22025H   22296.08257652  .00001569  00000-0  11661-3 0  9990,2 51963  53.2162 167.0086 0001633  58.7913 301.3239 15.08849434 36050,6917.852,95.437,540.846,538.587,0.0
51963.0,STARLINK-3675,PAYLOAD,2022-10-23 08:20:26,15.08866048,0.0001599,53.2163,165.8191,61.5763,298.539,-0.00010235,-1.918e-05,0.0,0 STARLINK-3675,1 51963U 22025H   22296.34752946 -.00001918  00000-0 -10235-3 0  9991,2 51963  53.2163 165.8191 0001599  61.5763 298.5390 15.08866048 35009,6917.801,95.436,540.7719999999998,538.56,0.0
51963.0,STARLINK-3675,PAYLOAD,2022-10-23 17:52:45,15.08847064,0.0001631,53.2172,164.0368,66.3368,293.7796,7.7935e-05,9.53e-06,0.0,0 STARLINK-3675,1 51963U 22025H   22296.74497581  .00000953  00000-0  77935-4 0  9993,2 51963  53.2172 164.0368 0001631  66.3368 293.7796 15.08847064 36158,6917.859,95.437,540.852,538.595,0.0
51963.0,STARLINK-3675,PAYLOAD,2022-10-24 00:14:18,15.088515,0.0001638,53.2166,162.8471,62.6209,297.4949,0.00011224,1.499e-05,0.0,0 STARLINK-3675,1 51963U 22025H   22297.00993079  .00001499  00000-0  11224-3 0  9990,2 51963  53.2166 162.8471 0001638  62.6209 297.4949 15.08851500 35107,6917.845,95.437,540.8430000000002,538.577,0.0
51963.0,STARLINK-3675,PAYLOAD,2022-10-25 00:05:07,15.08821235,0.0001675,53.2167,158.3868,61.6776,298.4385,-0.00020642,-3.5700000000000014e-05,0.0,0 STARLINK-3675,1 51963U 22025H   22298.00356344 -.00003570  00000-0 -20642-3 0  9997,2 51963  53.2167 158.3868 0001675  61.6776 298.4385 15.08821235 36341,6917.938,95.439,540.962,538.644,0.0
51963.0,STARLINK-3675,PAYLOAD,2022-10-25 08:02:02,15.08834243,0.0001189,53.2163,156.89700000000005,81.5212,278.5915,-0.00024703,-4.217e-05,0.0,0 STARLINK-3675,1 51963U 22025H   22298.33475648 -.00004217  00000-0 -24703-3 0  9993,2 51963  53.2163 156.8970 0001189  81.5212 278.5915 15.08834243 35306,6917.898,95.438,540.586,538.94,0.0
51963.0,STARLINK-3675,PAYLOAD,2022-10-25 19:09:44,15.08840658,0.0001492,53.2158,154.8163,57.1517,302.9619,-1.9025e-05,-5.91e-06,0.0,0 STARLINK-3675,1 51963U 22025H   22298.79842949 -.00000591  00000-0 -19025-4 0  9998,2 51963  53.2158 154.8163 0001492  57.1517 302.9619 15.08840658 36464,6917.878000000002,95.438,540.776,538.711,0.0
51963.0,STARLINK-3675,PAYLOAD,2022-10-25 20:45:07,15.08840394,0.0001501999999999,53.2158,154.5189,56.9215,303.1922,-1.6688e-05,-5.54e-06,0.0,0 STARLINK-3675,1 51963U 22025H   22298.86466975 -.00000554  00000-0 -16688-4 0  9998,2 51963  53.2158 154.5189 0001502  56.9215 303.1922 15.08840394 35380,6917.879,95.438,540.783,538.705,0.0
51963.0,STARLINK-3675,PAYLOAD,2022-10-26 07:52:49,15.08846002,0.0001558,53.2159,152.4378,56.7079,303.4062,2.216e-05,6.5e-07,0.0,0 STARLINK-3675,1 51963U 22025H   22299.32834596  .00000065  00000-0  22160-4 0  9995,2 51963  53.2159 152.4378 0001558  56.7079 303.4062 15.08846002 35453,6917.861999999999,95.437,540.805,538.649,0.0
51963.0,STARLINK-3675,PAYLOAD,2022-10-26 20:35:54,15.0883679,0.0001588999999999,53.2159,150.0586,57.2286,302.8859,0.00033907,5.112e-05,0.0,0 STARLINK-3675,1 51963U 22025H   22299.85826948  .00005112  00000-0  33907-3 0  9993,2 51963  53.2159 150.0586 0001589  57.2286 302.8859 15.08836790 36628,6917.89,95.438,540.854,538.656,0.0
51963.0,STARLINK-3675,PAYLOAD,2022-10-27 07:43:37,15.08836914,0.0001699999999999,53.2146,147.9775,54.51,305.605,0.00026751,3.972e-05,0.0,0 STARLINK-3675,1 51963U 22025H   22300.32195934  .00003972  00000-0  26751-3 0  9993,2 51963  53.2146 147.9775 0001700  54.5100 305.6050 15.08836914 36698,6917.89,95.438,540.931,538.5790000000002,0.0
51963.0,STARLINK-3675,PAYLOAD,2022-10-27 20:26:41,15.08848286,0.0001621999999999,53.2143,145.5983,54.5117,305.6027,0.00020377,2.957e-05,0.0,0 STARLINK-3675,1 51963U 22025H   22300.85187282  .00002957  00000-0  20377-3 0  9998,2 51963  53.2143 145.5983 0001622  54.5117 305.6027 15.08848286 36779,6917.855,95.437,540.842,538.5980000000002,0.0
51963.0,STARLINK-3675,PAYLOAD,2022-10-28 01:12:51,15.08852198,0.0001635,53.2144,144.7063,53.6473,306.467,0.00026747,3.973e-05,0.0,0 STARLINK-3675,1 51963U 22025H   22301.05059086  .00003973  00000-0  26747-3 0  9997,2 51963  53.2144 144.7063 0001635  53.6473 306.4670 15.08852198 35712,6917.843000000003,95.437,540.839,538.577,0.0
51963.0,STARLINK-3675,PAYLOAD,2022-10-28 20:17:28,15.08843328,0.0001621999999999,53.2148,141.1379,50.8572,309.2564,5.9773e-05,6.63e-06,0.0,0 STARLINK-3675,1 51963U 22025H   22301.84547013  .00000663  00000-0  59773-4 0  9995,2 51963  53.2148 141.1379 0001622  50.8572 309.2564 15.08843328 36924,6917.87,95.437,540.857,538.613,0.0
51963.0,STARLINK-3675,PAYLOAD,2022-10-29 01:03:37,15.08844543,0.0001614,53.2148,140.2453,51.9828,308.131,5.6158e-05,6.06e-06,0.0,0 STARLINK-3675,1 51963U 22025H   22302.04418926  .00000606  00000-0  56158-4 0  9999,2 51963  53.2148 140.2453 0001614  51.9828 308.1310 15.08844543 35863,6917.8669999999975,95.437,540.8480000000002,538.615,0.0
51963.0,STARLINK-3675,PAYLOAD,2022-10-29 20:08:15,15.08837393,0.000153,53.2147,136.6765,52.6694,307.4437,-3.0117e-05,-7.67e-06,0.0,0 STARLINK-3675,1 51963U 22025H   22302.83907119 -.00000767  00000-0 -30117-4 0  9990,2 51963  53.2147 136.6765 0001530  52.6694 307.4437 15.08837393 37075,6917.888000000001,95.438,540.812,538.695,0.0
51963.0,STARLINK-3675,PAYLOAD,2022-10-30 05:40:34,15.08842601,0.0001583,53.2157,134.8923,54.3649,305.749,8.765399999999999e-06,-1.49e-06,0.0,0 STARLINK-3675,1 51963U 22025H   22303.23651015 -.00000149  00000-0  87654-5 0  9998,2 51963  53.2157 134.8923 0001583  54.3649 305.7490 15.08842601 36043,6917.871999999999,95.437,540.8330000000002,538.6419999999998,0.0
51963.0,STARLINK-3675,PAYLOAD,2022-10-30 19:59:02,15.0884114,0.0001526,53.2156,132.2158,56.2543,303.8594,9.9292e-05,1.293e-05,0.0,0 STARLINK-3675,1 51963U 22025H   22303.83266768  .00001293  00000-0  99292-4 0  9991,2 51963  53.2156 132.2158 0001526  56.2543 303.8594 15.08841140 36136,6917.877,95.437,540.798,538.686,0.0
51963.0,STARLINK-3675,PAYLOAD,2022-10-31 05:31:22,15.08835057,0.000155,53.2157,130.4317,55.6343,304.4796,2.3293e-05,8.3e-07,0.0,0 STARLINK-3675,1 51963U 22025H   22304.23011577  .00000083  00000-0  23293-4 0  9996,2 51963  53.2157 130.4317 0001550  55.6343 304.4796 15.08835057 36199,6917.895,95.438,540.8330000000002,538.688,0.0
51963.0,STARLINK-3675,PAYLOAD,2022-10-31 23:00:36,15.08841314,0.000159,53.2157,127.1614,59.0344,301.0804,0.00013265,1.824e-05,0.0,0 STARLINK-3675,1 51963U 22025H   22304.95875039  .00001824  00000-0  13265-3 0  9997,2 51963  53.2157 127.1614 0001590  59.0344 301.0804 15.08841314 37394,6917.876,95.437,540.841,538.641,0.0
51963.0,STARLINK-3675,PAYLOAD,2022-11-01 18:05:13,15.08847634,0.000206,53.2159,123.5921,61.9539,298.1661,-8.7665e-05,-1.684e-05,0.0,0 STARLINK-3675,1 51963U 22025H   22305.75363326 -.00001684  00000-0 -87665-4 0  9999,2 51963  53.2159 123.5921 0002060  61.9539 298.1661 15.08847634 36429,6917.857,95.437,541.1469999999998,538.297,0.0
51963.0,STARLINK-3675,PAYLOAD,2022-11-02 00:26:46,15.08839777,0.0001633,53.2158,122.4028,58.5606,301.5546,6.906100000000001e-05,8.11e-06,0.0,0 STARLINK-3675,1 51963U 22025H   22306.01859486  .00000811  00000-0  69061-4 0  9995,2 51963  53.2158 122.4028 0001633  58.5606 301.5546 15.08839777 37551,6917.880999999999,95.438,540.876,538.616,0.0
51963.0,STARLINK-3675,PAYLOAD,2022-11-02 11:34:28,15.08840139,0.0001479,53.2181,120.3193,58.4433,301.6704,0.0001065,1.407e-05,0.0,0 STARLINK-3675,1 51963U 22025H   22306.48227425  .00001407  00000-0  10650-3 0  9999,2 51963  53.2181 120.3193 0001479  58.4433 301.6704 15.08840139 36530,6917.88,95.438,540.768,538.722,0.0
51963.0,STARLINK-3675,PAYLOAD,2022-11-02 14:45:14,15.08842959,0.0001250999999999,53.2164,119.7254,51.6557,308.4547,0.00016933,2.408e-05,0.0,0 STARLINK-3675,1 51963U 22025H   22306.61474991  .00002408  00000-0  16933-3 0  9998,2 51963  53.2164 119.7254 0001251  51.6557 308.4547 15.08842959 36555,6917.871,95.437,540.602,538.871,0.0
51963.0,STARLINK-3675,PAYLOAD,2022-11-02 21:06:46,15.08848843,0.0001584,53.2163,118.5367,55.0941,305.02,9.4608e-05,1.218e-05,0.0,0 STARLINK-3675,1 51963U 22025H   22306.87970813  .00001218  00000-0  94608-4 0  9994,2 51963  53.2163 118.5367 0001584  55.0941 305.0200 15.08848843 37682,6917.853,95.437,540.814,538.623,0.0
51963.0,STARLINK-3675,PAYLOAD,2022-11-03 11:25:15,15.08836295,0.000165,53.2157,115.8603,55.1468,304.9679,5.6718e-05,6.15e-06,0.0,0 STARLINK-3675,1 51963U 22025H   22307.47587683  .00000615  00000-0  56718-4 0  9990,2 51963  53.2157 115.8603 0001650  55.1468 304.9679 15.08836295 37773,6917.892,95.438,540.898,538.615,0.0
51963.0,STARLINK-3675,PAYLOAD,2022-11-03 16:11:24,15.08840716,0.0001724,53.216,114.9688,54.1474,305.9678,9.4519e-05,1.217e-05,0.0,0 STARLINK-3675,1 51963U 22025H   22307.67459336  .00001217  00000-0  94519-4 0  9995,2 51963  53.2160 114.9688 0001724  54.1474 305.9678 15.08840716 36714,6917.878000000002,95.438,540.936,538.5509999999998,0.0
51963.0,STARLINK-3675,PAYLOAD,2022-11-04 19:12:58,15.08820112,0.000214,53.2161,109.9145,56.8105,303.3092,0.00059284,9.155e-05,0.0,0 STARLINK-3675,1 51963U 22025H   22308.80067230  .00009155  00000-0  59284-3 0  9997,2 51963  53.2161 109.9145 0002140  56.8105 303.3092 15.08820112 37979,6917.941,95.439,541.2869999999998,538.326,0.0
51963.0,STARLINK-3675,PAYLOAD,2022-11-04 20:48:20,15.08860524,0.0001813,53.2162,109.6166,47.4801,312.6344,1.8162e-06,-2.59e-06,0.0,0 STARLINK-3675,1 51963U 22025H   22308.86689923 -.00000259  00000-0  18162-5 0  9991,2 51963  53.2162 109.6166 0001813  47.4801 312.6344 15.08860524 36899,6917.818,95.436,540.937,538.428,0.0
